 2013  9 1  410 35.0 L                                                         1
 ACTION:ARG 16-08-10 03:16 OP:TEST STATUS:               ID:20130901041035     I
 2013-09-01-0410-35.DFDPC_024_00                                               6
 STAT SP IPHASW D HRMM SECON CODA AMPLIT PERI AZIMU VELO AIN AR TRES W  DIS CAZ7
 GCSZ SZ IP        411 17.24                                    0.06   4.00 304 
 GCSZ S1 IS        411 18.22                                    0.02   4.00 304 
 GCSZ EZ  IAML     411 18.47         1.8 0.08                          4.00 304 
 WZ11 HZ IP        411 17.19                                   -0.04   5.00  30 
 WZ11 HZ  IAML     411 20.43         8.9 0.46                          5.00  30 
 WV03 SZ IP        411 17.19                                   -0.07   5.00  25 
 WV03 SZ  IAML     411 20.56        10.9 0.23                          5.00  25 
 WZ02 EN IS        411 18.81                                   -0.20   8.00  96 
 WZ02 EZ  IAML     411 20.59         1.0 0.22                          8.00  96 
 WHYM SZ IP        411 18.30                                    0.22   11.0 182 
 WHYM SN IS        411 19.89                                    0.18   11.0 182 
 WHYM SZ  IAML     411 20.51         3.1 0.14                          11.0 182 
 EORO SZ IP        411 19.43                                    0.14   19.0 240 
 EORO SZ  IAML     411 21.38         1.3 0.28                          19.0 240 
 EORO SN IS        411 21.53                                   -0.22   19.0 240 
 LABE SN IS        411 23.36                                   -0.19   25.0 205 
 LABE SZ  IAML     411 23.61         1.0 0.23                          25.0 205 
                                                                                
