 2016  1 4  045 52.0 L -40.575 176.429 19.8  WEL 22 0.0 2.8LWEL 2.5LWEL 2.5WWEL1
 ACTION:ARG 16-08-10 03:12 OP:TEST STATUS:               ID:20160104004552     I
 None                                                                          6
 STAT SP IPHASW D HRMM SECON CODA AMPLIT PERI AZIMU VELO AIN AR TRES W  DIS CAZ7
 ANWZ EZ  P   1    045 57.43        10.5                       -0.02   0.12  19 
 BFZ  HZ  P   1    045 58.28         4.2                        0.11   0.18 233 
 DVHZ EZ  P   1    046  0.61         1.7                       -0.04   0.33 325 
 PRWZ EZ  P   1    046  1.15         2.0                        0.22   0.35 273 
 PRHZ EZ  P   1    046  0.56         1.9                       -0.36   0.35  28 
 CPWZ EZ  P   1    046  1.62         1.0                        0.16   0.38 208 
 TIWZ EZ  P   1    046  2.67         2.5                       -0.19   0.47 244 
 WPHZ EZ  P   1    046  3.38         1.1                       -0.12   0.51   3 
 POWZ EZ  P   1    046  3.95         1.8                        0.14   0.53 290 
 TSZ  HZ  P   1    046  5.16         1.5                       -0.06   0.62 326 
 PXZ  HZ  P   1    046  5.33         2.1                       -0.41   0.65  32 
 MRZ  HZ  P   1    046  5.18         0.9                       -0.61   0.65 262 
 PNHZ EZ  P   1    046  6.04         0.6                       -0.10   0.68 347 
 HOWZ EZ  P        046  6.63         0.2                       -1.36   0.77 245 
 OHWZ EZ  P        046 10.95         1.8                        1.06   0.91 293 
 MTW  EZ  P        046  8.37         0.2                       -1.86   0.93 231 
 KWHZ EZ  P        046 18.06                                    4.69   1.15   1 
 WAZ  HZ  P        046 17.65         3.1                        1.30   1.35 307 
 WNVZ EZ  P        046 18.29         0.1                        1.47   1.38 334 
 SNVZ EZ  P        046 20.45         0.2                        1.94   1.50 338 
 OTVZ HZ  P        046 20.48         0.5                        1.80   1.51 339 
 KRVZ EZ  P        046 22.05         0.3                        2.36   1.58 339 
                                                                                
