 2016  1 4  0 7 55.0 R -40.584 176.442 25.4  WEL105 0.0 5.0LWEL 5.4LWEL 5.0WWEL1
 ACTION:ARG 16-08-10 03:16 OP:TEST STATUS:               ID:20160104000755     I
 DUMMY                                                                         6
 STAT SP IPHASW D HRMM SECON CODA AMPLIT PERI AZIMU VELO AIN AR TRES W  DIS CAZ7
 ANWZ EE  S   1    0 8  5.58                                   -0.13   0.13  11 
 ANWZ EE  P   1 D  0 8  1.13       696.2                       -0.13   0.13  11 
 BFZ  HZ  P   1    0 8  1.98      1025.7                        0.03   0.18 237 
 BFZ  HN  S   1    0 8  6.58                                   -0.36   0.18 237 
 PRHZ EZ  P   1    0 8  4.13       235.9                       -0.24   0.35  25 
 PRHZ EE  S   1    0 8 10.79                                   -0.41   0.35  25 
 DVHZ EZ  P   1    0 8  4.16       456.7                       -0.26   0.35 323 
 DVHZ EN  S   1    0 8 10.69                                   -0.59   0.35 323 
 PRWZ EZ  P   1    0 8  4.77       581.0                        0.27   0.36 274 
 PRWZ EE  S   1    0 8 11.46                                    0.03   0.36 274 
 CPWZ EZ  P   1    0 8  5.10       410.8                        0.41   0.37 209 
 CPWZ EE  S   1    0 8 12.48                                    0.72   0.37 209 
 TIWZ EZ  P   1    0 8  6.25       934.9                        0.29   0.46 245 
 TIWZ EE  S   1    0 8 14.37                                    0.37   0.46 245 
 WPHZ EZ  P   1    0 8  6.98       447.8                        0.25   0.52 359 
 WPHZ EE  S   1    0 8 15.84                                    0.49   0.52 359 
 POWZ EZ  S   1    0 8 15.95                                   -0.11   0.55 290 
 POWZ EZ  P   1    0 8  7.65       964.2                        0.51   0.55 290 
 PXZ  HZ  P   1    0 8  7.93        82.8                       -0.49   0.64  30 
 TSZ  HZ  P   1    0 8  8.76       473.5                        0.32   0.64 324 
 TSZ  HE  S   1    0 8 18.74                                    0.41   0.64 324 
 MRZ  HZ  P   1    0 8  8.78        97.2                        0.05   0.66 263 
 MRZ  HN  S   1    0 8 18.64                                   -0.20   0.66 263 
 PNRS B1  P   1    0 8  8.06                                   -0.75   0.67 292 
 TMWZ EZ  P   1    0 8  8.48        83.4                       -0.35   0.67 218 
 PNMS BZ  P   1    0 8  8.30                                   -0.75   0.68 288 
 PNHZ EZ  P   1    0 8  9.54       251.7                        0.34   0.69 344 
 PNHZ EE  S   1    0 8 20.59                                    0.93   0.69 344 
 HOWZ EZ  P   1    0 8 10.15       121.1                       -0.11   0.77 245 
 HOWZ EE  S   1    0 8 21.04                                   -0.48   0.77 245 
 KAHZ EZ  P        0 8 11.30                                   -0.17   0.86  23 
 MTW  EZ  P        0 8 11.47                                   -0.81   0.91 230 
 OHWZ EZ  P        0 8 14.17                                    1.53   0.94 293 
 KRHZ EZ  P        0 8 12.86                                    0.22   0.94 356 
 OGWZ EN  P   1 C  0 8 13.34        42.2                       -0.06   0.99 256 
 TRWZ EZ  P        0 8 12.28                                   -1.11   0.99 214 
 CKHZ EZ  P        0 8 13.42                                   -0.70   1.05  28 
 PAWZ EZ  P        0 8 14.06                                   -0.91   1.11 223 
 BHHZ EZ  P        0 8 15.95                                    0.63   1.13 344 
 MCHZ EZ  P        0 8 16.16                                    0.51   1.15   9 
 KWHZ EZ  P        0 8 16.08                                    0.38   1.16 359 
 CAW  EZ  P        0 8 15.44                                   -0.37   1.17 242 
 KIW  EZ  P        0 8 16.32                                    0.10   1.20 256 
 MSWZ EZ  P        0 8 15.45                                   -1.19   1.23 226 
 MOVZ EZ  P        0 8 18.61                                    1.09   1.29 335 
 PLWZ EZ  P        0 8 16.53                                   -1.57   1.33 221 
 ARHZ EZ  P        0 8 18.81                                   -0.06   1.39  18 
 WAZ  HZ  P        0 8 20.82                                    1.91   1.39 306 
 MTVZ EZ  P        0 8 21.74                                    2.52   1.41 327 
 WNVZ EZ  P        0 8 20.77                                    1.53   1.41 332 
 BKZ  HZ  P        0 8 19.53                                    0.23   1.42   1 
 BHW  EZ  P        0 8 18.67                                   -1.02   1.45 234 
 WEL  HZ  P        0 8 19.08                                   -0.64   1.45 240 
 TUVZ EZ  P        0 8 21.47                                    1.75   1.45 335 
 TRVZ HZ  P        0 8 21.51                                    1.67   1.46 331 
 WHVZ HZ  P        0 8 21.65                                    1.81   1.46 332 
 DRZ  EZ  P        0 8 21.96                                    1.91   1.47 332 
 MAVZ HZ  P        0 8 21.90                                    1.75   1.48 332 
 FWVZ HZ  P        0 8 22.12                                    1.77   1.49 332 
 NMHZ EZ  P        0 8 21.18                                    0.57   1.51  10 
 SNVZ EZ  P        0 8 22.35                                    1.53   1.53 335 
 OTVZ HZ  P        0 8 22.50                                    1.49   1.54 336 
 NGZ  EZ  P        0 8 22.73                                    1.61   1.55 335 
 ETVZ HZ  P        0 8 23.11                                    1.93   1.55 338 
 TMVZ HZ  P        0 8 23.05                                    1.59   1.57 338 
 NNVZ EZ  P        0 8 23.65                                    2.03   1.58 336 
 NTVZ HZ  P        0 8 23.51                                    1.72   1.60 338 
 WTVZ EZ  P        0 8 23.79                                    1.85   1.61 335 
 KRVZ EZ  P        0 8 24.19                                    2.21   1.61 337 
 RITZ EZ  P        0 8 24.25                                    1.49   1.67 344 
 TWVZ EZ  P        0 8 24.66                                    1.48   1.70 332 
 KATZ EZ  P        0 8 25.48                                    2.17   1.71 340 
 HATZ EZ  P        0 8 24.34                                    0.95   1.71 350 
 RAHZ EZ  P        0 8 23.49                                   -0.25   1.74  16 
 MRHZ EZ  P        0 8 24.91                                    1.03   1.75 359 
 TCW  EZ  P        0 8 23.29                                   -0.70   1.76 248 
 MTHZ EZ  P        0 8 24.00                                    0.00   1.76  10 
 RATZ HZ  P        0 8 25.86                                    1.39   1.79 343 
 MHGZ EZ  P        0 8 23.43                                   -1.45   1.82  38 
 KNZ  HZ  P        0 8 23.42                                   -1.53   1.83  31 
 DUWZ EZ  P        0 8 26.40                                    0.05   1.93 262 
 LREZ EZ  P        0 8 28.61                                    2.28   1.93 304 
 THQ2 EZ  P        0 8 27.28                                    0.97   1.92 353 
 SNGZ EZ  P        0 8 26.02                                   -0.35   1.93  21 
 VRZ  HZ  P        0 8 28.35                                    1.69   1.95 317 
 WHTZ EZ  P        0 8 28.13                                    1.45   1.95 348 
 ARAZ EZ  P        0 8 32.99                                    6.07   1.97 352 
 POIZ EZ  P        0 8 32.54                                    5.53   1.98 350 
 PRGZ EZ  P        0 8 25.72                                   -1.58   2.00  34 
 RTZ  HZ  P        0 8 27.62                                    0.15   2.01  12 
 ALRZ EZ  P        0 8 27.98                                    0.35   2.02 357 
 CMWZ EZ  P        0 8 27.49                                   -0.47   2.05 234 
 TUWZ EZ  P        0 8 27.18                                   -1.13   2.07 245 
 WPRZ EZ  P        0 8 28.62                                    0.27   2.07 353 
 PRRZ EZ  P        0 8 28.86                                    0.36   2.08 358 
 MUGZ EZ  P        0 8 28.95                                   -0.04   2.12   6 
 RIGZ EZ  P        0 8 27.97                                   -1.23   2.13  28 
 PREZ EZ  P        0 8 32.32                                    2.93   2.15 304 
 KUTZ EZ  P        0 8 30.02                                    0.67   2.15 346 
 HRRZ EZ  P        0 8 30.66                                    0.64   2.19 356 
 MHEZ EZ  P        0 8 33.26                                    2.89   2.22 312 
 RAGZ EZ  P        0 8 29.80                                   -0.53   2.22  20 
 NEZ  EZ  P        0 8 33.15                                    2.64   2.23 305 
 BSWZ EZ  P        0 8 29.36                                   -1.31   2.24 238 
 RRRZ EZ  P        0 8 30.68                                   -0.00   2.24   1 
 GRRZ EZ  P        0 8 31.60                                    0.87   2.25 353 
 KHEZ HZ  P        0 8 33.51                                    2.49   2.27 303 
 HSRZ EZ  P        0 8 31.43                                    0.31   2.27 356 
 NMEZ EZ  P        0 8 33.94                                    2.61   2.29 299 
 PKE  EZ  P        0 8 34.67                                    2.60   2.34 305 
 TARZ EZ  P        0 8 32.68                                    0.58   2.35   1 
 TLZ  HZ  P        0 8 32.70                                    0.44   2.36 342 
 NBEZ EZ  P        0 8 35.63                                    3.12   2.38 302 
 URZ  HZ  P        0 8 31.73                                   -0.82   2.38  12 
 NNZ  HZ  P        0 8 32.50                                   -0.41   2.41 253 
 MWZ  HZ  P        0 8 31.52                                   -1.31   2.40  20 
 TKGZ EZ  P        0 8 31.41                                   -1.47   2.40  27 
 CNGZ EZ  P        0 8 32.65                                   -1.61   2.50  33 
                                                                                
